[{"OBJECT_NAME":"STARLINK-31613","OBJECT_ID":"2024-065L","EPOCH":"2026-03-09T21:45:01.756512","MEAN_MOTION":15.30188035,"ECCENTRICITY":0.00013737,"INCLINATION":53.1602,"RA_OF_ASC_NODE":280.5947,"ARG_OF_PERICENTER":72.6724,"MEAN_ANOMALY":287.4427,"EPHEMERIS_TYPE":0,"CLASSIFICATION_TYPE":"U","NORAD_CAT_ID":59431,"ELEMENT_SET_NO":999,"REV_AT_EPOCH":10896,"BSTAR":5.3242107e-5,"MEAN_MOTION_DOT":1.217e-5,"MEAN_MOTION_DDOT":0},{"OBJECT_NAME":"DMSP 5D-2 F13 DEB","OBJECT_ID":"1995-015HL","EPOCH":"2026-02-09T02:06:19.247328","MEAN_MOTION":15.12822218,"ECCENTRICITY":0.00117732,"INCLINATION":98.8603,"RA_OF_ASC_NODE":96.8879,"ARG_OF_PERICENTER":223.037,"MEAN_ANOMALY":136.9936,"EPHEMERIS_TYPE":0,"CLASSIFICATION_TYPE":"U","NORAD_CAT_ID":42294,"ELEMENT_SET_NO":999,"REV_AT_EPOCH":55633,"BSTAR":0.010466292,"MEAN_MOTION_DOT":0.00188804,"MEAN_MOTION_DDOT":0}]
